LEMUR-2-PETER           
1 40935U 15052F   17342.65643757  .00002152  00000-0  20968-3 0  9992
2 40935   5.9998  68.8715 0011797 191.1968 168.7897 14.76872055118773
